*******************************************************************************
JPL/HORIZONS               3753 Cruithne (1986 TO)         2023-May-05 16:07:57
Rec #:    3753 (+COV) Soln.date: 2023-Mar-01_06:10:23   # obs: 1216 (1973-2022)
 
IAU76/J2000 helio. ecliptic osc. elements (au, days, deg., period=Julian yrs):
 
  EPOCH=  2456900.5 ! 2014-Aug-31.00 (TDB)         Residual RMS= .35645
   EC= .5148627256994029   QR= .4840184658385133   TP= 2457012.169995938
   OM= 126.2462939076055   W=  43.80978547847901   IN= 19.80747881540994
   A= .9976938311662474    MA= 249.5553600271496   ADIST= 1.511369196493981
   PER= .99656             N= .9890269900000001    ANGMOM= .014729875
   DAN= .53459             DDN= 1.16671            L= 168.3137556
   B= 13.566979            MOID= .0710535          TP= 2014-Dec-20.6699959380
 
Asteroid physical parameters (km, seconds, rotational period in hours):
   GM= n.a.                RAD= 1.0355             ROTPER= 27.3099
   H= 15.5                 G= .150                 B-V= n.a.
                           ALBEDO= .365            STYP= Q
 
ASTEROID comments: 
1: soln ref.= JPL#240, OCC=0
2: source=ORB
*******************************************************************************

  
  

*******************************************************************************
Ephemeris / WWW_USER Fri May  5 16:07:57 2023 Pasadena, USA      / Horizons
*******************************************************************************
Target body name: 3753 Cruithne (1986 TO)         {source: JPL#240}
Center body name: Earth (399)                     {source: DE441}
Center-site name: BODY CENTER
*******************************************************************************
Start time      : A.D. 1700-Sep-01 00:00:00.0000 TDB
Stop  time      : A.D. 2000-Sep-01 00:00:00.0000 TDB
Step-size       : 1 calendar years
*******************************************************************************
Center geodetic : 0.0, 0.0, 0.0                   {E-lon(deg),Lat(deg),Alt(km)}
Center cylindric: 0.0, 0.0, 0.0                   {E-lon(deg),Dxy(km),Dz(km)}
Center radii    : 6378.137, 6378.137, 6356.752 km {Equator_a, b, pole_c}
Small perturbers: Yes                             {source: SB441-N16}
Output units    : KM-S
Calendar mode   : Mixed Julian/Gregorian
Output type     : GEOMETRIC cartesian states
Output format   : 1 (position only)
EOP file        : eop.230504.p230727
EOP coverage    : DATA-BASED 1962-JAN-20 TO 2023-MAY-04. PREDICTS-> 2023-JUL-26
Reference frame : Ecliptic of J2000.0
*******************************************************************************
Initial IAU76/J2000 heliocentric ecliptic osculating elements (au, days, deg.):
  EPOCH=  2456900.5 ! 2014-Aug-31.00 (TDB)         Residual RMS= .35645        
   EC= .5148627256994029   QR= .4840184658385133   TP= 2457012.169995938       
   OM= 126.2462939076055   W=  43.80978547847901   IN= 19.80747881540994       
  Equivalent ICRF heliocentric cartesian coordinates (au, au/d):
   X= 1.215347990905840E+00  Y= 5.153520927692684E-01  Z=-2.481738801145509E-01
  VX=-7.990656955364673E-03 VY= 8.039467650712289E-03 VZ= 3.939584837771865E-03
Asteroid physical parameters (km, seconds, rotational period in hours):        
   GM= n.a.                RAD= 1.0355             ROTPER= 27.3099             
   H= 15.5                 G= .150                 B-V= n.a.                   
                           ALBEDO= .365            STYP= Q                     
*******************************************************************************
            JDTDB,            Calendar Date (TDB),                      X,                      Y,                      Z,
**************************************************************************************************************************
$$SOE
2342215.500000000, A.D. 1700-Sep-01 00:00:00.0000, -1.615230119907557E+08,  1.367789952710269E+08, -1.534765039205578E+07,
2342580.500000000, A.D. 1701-Sep-01 00:00:00.0000, -1.586267943846984E+08,  1.390326404650005E+08, -1.647358640912149E+07,
2342945.500000000, A.D. 1702-Sep-01 00:00:00.0000, -1.557150278117810E+08,  1.412040817316365E+08, -1.758144171348742E+07,
2343310.500000000, A.D. 1703-Sep-01 00:00:00.0000, -1.528816165541410E+08,  1.432749136410757E+08, -1.864214182914288E+07,
2343676.500000000, A.D. 1704-Sep-01 00:00:00.0000, -1.538837316070869E+08,  1.412270816812387E+08, -1.846651333595581E+07,
2344041.500000000, A.D. 1705-Sep-01 00:00:00.0000, -1.509680111110886E+08,  1.432334219218943E+08, -1.954200702842966E+07,
2344406.500000000, A.D. 1706-Sep-01 00:00:00.0000, -1.479809302768907E+08,  1.452108721445228E+08, -2.063038438015608E+07,
2344771.500000000, A.D. 1707-Sep-01 00:00:00.0000, -1.450051478591938E+08,  1.470849612940839E+08, -2.170033650877912E+07,
2345137.500000000, A.D. 1708-Sep-01 00:00:00.0000, -1.458156166963640E+08,  1.451632834826627E+08, -2.159745146002135E+07,
2345502.500000000, A.D. 1709-Sep-01 00:00:00.0000, -1.427967506976654E+08,  1.470322950623911E+08, -2.266951623691797E+07,
2345867.500000000, A.D. 1710-Sep-01 00:00:00.0000, -1.397939271594302E+08,  1.487769131207300E+08, -2.371585934782888E+07,
2346232.500000000, A.D. 1711-Sep-01 00:00:00.0000, -1.368347879611932E+08,  1.504421708725758E+08, -2.472744943848242E+07,
2346598.500000000, A.D. 1712-Sep-01 00:00:00.0000, -1.376575153893400E+08,  1.485157516955280E+08, -2.463094846119772E+07,
2346963.500000000, A.D. 1713-Sep-01 00:00:00.0000, -1.345068647263559E+08,  1.501850835825682E+08, -2.569483814572722E+07,
2347328.500000000, A.D. 1714-Sep-01 00:00:00.0000, -1.313502519633752E+08,  1.518230297251670E+08, -2.674685358556606E+07,
2347693.500000000, A.D. 1715-Sep-01 00:00:00.0000, -1.282999098069616E+08,  1.533247388417552E+08, -2.775151392027964E+07,
2348059.500000000, A.D. 1716-Sep-01 00:00:00.0000, -1.290095363779233E+08,  1.514543906803486E+08, -2.769172355648232E+07,
2348424.500000000, A.D. 1717-Sep-01 00:00:00.0000, -1.258603861128062E+08,  1.529248752453036E+08, -2.871622986943087E+07,
2348789.500000000, A.D. 1718-Sep-01 00:00:00.0000, -1.227039965669020E+08,  1.542984763322287E+08, -2.972486955431552E+07,
2349154.500000000, A.D. 1719-Sep-01 00:00:00.0000, -1.196100341205556E+08,  1.556208410671633E+08, -3.069753125715417E+07,
2349520.500000000, A.D. 1720-Sep-01 00:00:00.0000, -1.202992662615867E+08,  1.537961189593760E+08, -3.065707135404434E+07,
2349885.500000000, A.D. 1721-Sep-01 00:00:00.0000, -1.171909599133568E+08,  1.550682208220686E+08, -3.162310945401333E+07,
2350250.500000000, A.D. 1722-Sep-01 00:00:00.0000, -1.140694722730188E+08,  1.562867520384212E+08, -3.258032628934575E+07,
2350615.500000000, A.D. 1723-Sep-01 00:00:00.0000, -1.109733998899808E+08,  1.574000178402533E+08, -3.351914163953626E+07,
2350981.500000000, A.D. 1724-Sep-01 00:00:00.0000, -1.115284771308226E+08,  1.555606742136399E+08, -3.351480068216872E+07,
2351346.500000000, A.D. 1725-Sep-01 00:00:00.0000, -1.082993126424320E+08,  1.566786824378372E+08, -3.447588734033633E+07,
2351711.500000000, A.D. 1726-Sep-01 00:00:00.0000, -1.051498391235777E+08,  1.577143547787106E+08, -3.540001687184435E+07,
2352076.500000000, A.D. 1727-Sep-01 00:00:00.0000, -1.020462499326032E+08,  1.586830728556974E+08, -3.629252903682801E+07,
2352442.500000000, A.D. 1728-Sep-01 00:00:00.0000, -1.025848260618272E+08,  1.568747181617709E+08, -3.630096005453813E+07,
2352807.500000000, A.D. 1729-Sep-01 00:00:00.0000, -9.939985374882676E+07,  1.577774345788974E+08, -3.721191453204823E+07,
2353172.500000000, A.D. 1730-Sep-01 00:00:00.0000, -9.619385975608538E+07,  1.586459554922541E+08, -3.811388630029069E+07,
2353537.500000000, A.D. 1731-Sep-01 00:00:00.0000, -9.302903381788710E+07,  1.594426630715179E+08, -3.899817502917033E+07,
2353903.500000000, A.D. 1732-Sep-01 00:00:00.0000, -9.345181482607867E+07,  1.576441753111503E+08, -3.903513654195461E+07,
2354268.500000000, A.D. 1733-Sep-01 00:00:00.0000, -9.028232762790602E+07,  1.584141532109582E+08, -3.990506409646828E+07,
2354633.500000000, A.D. 1734-Sep-01 00:00:00.0000, -8.715418791276422E+07,  1.590839198675415E+08, -4.075221059207267E+07,
2354998.500000000, A.D. 1735-Sep-01 00:00:00.0000, -8.395992667699429E+07,  1.596932725361445E+08, -4.160020480102088E+07,
2355364.500000000, A.D. 1736-Sep-01 00:00:00.0000, -8.422518540393734E+07,  1.578734435037843E+08, -4.168561304711498E+07,
2355729.500000000, A.D. 1737-Sep-01 00:00:00.0000, -8.094493881774452E+07,  1.584467264416861E+08, -4.254332603924555E+07,
2356094.500000000, A.D. 1738-Sep-01 00:00:00.0000, -7.775357745107004E+07,  1.589940801944851E+08, -4.336373004488586E+07,
2356459.500000000, A.D. 1739-Sep-01 00:00:00.0000, -7.463886592647682E+07,  1.594548404853679E+08, -4.415756841140313E+07,
2356825.500000000, A.D. 1740-Sep-01 00:00:00.0000, -7.485912888625932E+07,  1.576113152072822E+08, -4.424940468027832E+07,
2357190.500000000, A.D. 1741-Sep-01 00:00:00.0000, -7.158864301063773E+07,  1.580148247615184E+08, -4.506988208635639E+07,
2357555.500000000, A.D. 1742-Sep-01 00:00:00.0000, -6.835666838231014E+07,  1.583392213133203E+08, -4.586715936372200E+07,
2357920.500000000, A.D. 1743-Sep-01 00:00:00.0000, -6.511647998573841E+07,  1.586253795853428E+08, -4.665208148085132E+07,
2358286.500000000, A.D. 1744-Sep-01 00:00:00.0000, -6.521834200181472E+07,  1.567873782827124E+08, -4.677112186531497E+07,
2358651.500000000, A.D. 1745-Sep-01 00:00:00.0000, -6.201659008198890E+07,  1.570165451815751E+08, -4.753647775792587E+07,
2359016.500000000, A.D. 1746-Sep-01 00:00:00.0000, -5.889158555138277E+07,  1.571995766677780E+08, -4.826819143936192E+07,
2359381.500000000, A.D. 1747-Sep-01 00:00:00.0000, -5.577407864838162E+07,  1.573087107425108E+08, -4.899082468326093E+07,
2359747.500000000, A.D. 1748-Sep-01 00:00:00.0000, -5.579260718969235E+07,  1.553909444636655E+08, -4.912459865173693E+07,
